{
  "type": "FeatureCollection",
  "name": "DIMA_NOW_CAMPUS_ZONES_V2",
  "features": [
    {
      "type": "Feature",
      "properties": {
        "id": "YEIN",
        "label": "예인관",
        "centerLongitude": 127.3535671,
        "centerLatitude": 37.0609666,
        "areaSquareMeters": 252466,
        "wakeRadiusMeters": 550,
        "attribution": "© OpenStreetMap contributors",
        "capturedAt": "2026-08-27T10:21:05.602Z"
      },
      "geometry": {
        "type": "Polygon",
        "coordinates": [
          [
            [
              127.35157370567323,
              37.0636703410925
            ],
            [
              127.35134840011598,
              37.057959773064354
            ],
            [
              127.3542881011963,
              37.05704364493188
            ],
            [
              127.35631585121156,
              37.06186389603846
            ],
            [
              127.35430955886842,
              37.06429530969742
            ],
            [
              127.35157370567323,
              37.0636703410925
            ]
          ]
        ]
      }
    },
    {
      "type": "Feature",
      "properties": {
        "id": "MAIN",
        "label": "본관",
        "centerLongitude": 127.3585957,
        "centerLatitude": 37.059416,
        "areaSquareMeters": 292742,
        "wakeRadiusMeters": 570,
        "attribution": "© OpenStreetMap contributors",
        "capturedAt": "2026-08-27T10:21:05.603Z"
      },
      "geometry": {
        "type": "Polygon",
        "coordinates": [
          [
            [
              127.35633462667468,
              37.06185319422157
            ],
            [
              127.35869765281679,
              37.062120739190675
            ],
            [
              127.35989928245546,
              37.06156852533837
            ],
            [
              127.36126184463502,
              37.05798545874042
            ],
            [
              127.36106336116792,
              37.05593057717724
            ],
            [
              127.35431760549547,
              37.057037223433966
            ],
            [
              127.35633462667468,
              37.06185319422157
            ]
          ]
        ]
      }
    },
    {
      "type": "Feature",
      "properties": {
        "id": "ONE_ROOM",
        "label": "원룸촌",
        "centerLongitude": 127.3627537,
        "centerLatitude": 37.0558538,
        "areaSquareMeters": 453601,
        "wakeRadiusMeters": 680,
        "attribution": "© OpenStreetMap contributors",
        "capturedAt": "2026-08-27T10:21:05.603Z"
      },
      "geometry": {
        "type": "Polygon",
        "coordinates": [
          [
            [
              127.36129134893419,
              37.05797903732221
            ],
            [
              127.36156225204469,
              37.059783709917404
            ],
            [
              127.36826777458192,
              37.05824243840848
            ],
            [
              127.36702322959901,
              37.05588764603305
            ],
            [
              127.36590743064882,
              37.051383925255784
            ],
            [
              127.36044108867647,
              37.052629807185085
            ],
            [
              127.35963106155397,
              37.054796087471864
            ],
            [
              127.35957473516466,
              37.05607209310532
            ],
            [
              127.36108481884004,
              37.05590917186811
            ],
            [
              127.36129134893419,
              37.05797903732221
            ]
          ]
        ]
      }
    }
  ]
}
